{
  "type": "FeatureCollection",
  "features": [
    {
      "type": "Feature",
      "geometry": {
        "type": "Point",
        "coordinates": [
          -71.4162,
          42.2793
        ]
      },
      "properties": {
        "name": "Where it starts, Massachusetts",
        "date": "1989-06-15",
        "description": "EDIT-ME: hometown center + real birth date"
      }
    },
    {
      "type": "Feature",
      "geometry": {
        "type": "Point",
        "coordinates": [
          -84.7346,
          39.5119
        ]
      },
      "properties": {
        "name": "Miami University, Oxford, Ohio",
        "date": "2007-08-20",
        "description": "EDIT-ME date: freshman year, chemistry then economics before music"
      }
    },
    {
      "type": "Feature",
      "geometry": {
        "type": "Point",
        "coordinates": [
          -71.0876,
          42.3466
        ]
      },
      "properties": {
        "name": "Berklee, 150 Mass Ave, Boston",
        "date": "2008-09-01",
        "description": "EDIT-ME date: the transfer into music education"
      }
    },
    {
      "type": "Feature",
      "geometry": {
        "type": "Point",
        "coordinates": [
          -71.0656,
          42.355
        ]
      },
      "properties": {
        "name": "The honest one (you pick)",
        "date": "2010-01-01",
        "description": "EDIT-ME entirely: the point that would not go on a resume. Only Kramer can choose this one."
      }
    },
    {
      "type": "Feature",
      "geometry": {
        "type": "Point",
        "coordinates": [
          -71.0328,
          42.3918
        ]
      },
      "properties": {
        "name": "First classroom, a charter school",
        "date": "2012-09-01",
        "description": "EDIT-ME place + date: first job, general music for English learners"
      }
    },
    {
      "type": "Feature",
      "geometry": {
        "type": "Point",
        "coordinates": [
          120.3826,
          36.0671
        ]
      },
      "properties": {
        "name": "Qingdao, China",
        "date": "2014-08-15",
        "description": "EDIT-ME date: the year teaching music abroad"
      }
    },
    {
      "type": "Feature",
      "geometry": {
        "type": "Point",
        "coordinates": [
          -71.095,
          42.3251
        ]
      },
      "properties": {
        "name": "A K-8 in Boston",
        "date": "2015-09-08",
        "description": "EDIT-ME place + date: the twelve BPS years, mapped to the neighborhood"
      }
    },
    {
      "type": "Feature",
      "geometry": {
        "type": "Point",
        "coordinates": [
          -71.1338,
          42.3639
        ]
      },
      "properties": {
        "name": "The Charles River, Brighton",
        "date": "2020-06-01",
        "description": "EDIT-ME date: home now, mapped to the riverbank on purpose"
      }
    },
    {
      "type": "Feature",
      "geometry": {
        "type": "Point",
        "coordinates": [
          -1.9812,
          43.3183
        ]
      },
      "properties": {
        "name": "San Sebastian, Spain",
        "date": "2026-07-02",
        "description": "Camino del Norte, first steps"
      }
    },
    {
      "type": "Feature",
      "geometry": {
        "type": "Point",
        "coordinates": [
          -2.935,
          43.263
        ]
      },
      "properties": {
        "name": "Bilbao, Spain",
        "date": "2026-07-10",
        "description": "Camino del Norte, the arrival"
      }
    }
  ]
}